,name,country,subcountry,geonameid,lat,lng
0,Udomlya,Russia,Tverskaya,452949,57.876779000000006,35.005109999999995
1,Sosnovka,Russia,St.-Petersburg,461698,56.253352,51.283364
2,Sasovo,Russia,Rjazan,461699,54.349928000000006,41.924087
3,Zyuzino,Russia,Moscow,461740,55.678753,38.120862
4,Zyablikovo,Russia,Moscow,461835,58.78699399999999,36.710175
5,Zverevo,Russia,Rostov,461910,48.028358000000004,40.123073
6,Zvenigorod,Russia,MO,461920,55.729686,36.855325
7,Zlatoust,Russia,Chelyabinsk,462444,55.173108,59.672425
8,Zimovniki,Russia,Rostov,462522,47.14537,42.467711
10,Zhukovskiy,Russia,MO,462755,55.597475,38.119802
11,Zhukovka,Russia,Brjansk,462822,53.533062,33.732547
12,Zhirnovsk,Russia,Volgograd,462984,50.978713,44.778834
13,Zhigulevsk,Russia,Samara,463082,53.401714,49.494657000000004
14,Zherdevka,Russia,Tambov,463217,51.842282,41.461796
15,Zheleznovodsk,Russia,Stavropol'skiy,463340,44.132058,43.030533
16,Zheleznogorsk,Russia,Kursk,463343,52.337971,35.351743
18,Zernograd,Russia,Rostov,463637,46.849564,40.312815
19,Zelenokumsk,Russia,Stavropol'skiy,463824,44.403288,43.884147999999996
20,Zelenograd,Russia,Moscow,463829,55.991893000000005,37.214382
21,Zelenodolsk,Russia,Tatarstan,463835,55.846906000000004,48.500617
22,Zelenchukskaya,Russia,Karachayevo-Cherkesiya,463885,43.860894,41.582834999999996
23,Zavolzh’ye,Russia,Nizjnij Novgorod,464101,56.182677000000005,47.251447
25,Zaraysk,Russia,MO,464687,54.756972999999995,38.874845
26,Zapolyarnyy,Russia,Murmansk,464790,69.426103,30.820739
28,Zainsk,Russia,Tatarstan,465543,55.298984,52.006391
30,Yoshkar-Ola,Russia,Mariy-El,466806,56.631595,47.886178
31,Yeysk,Russia,Krasnodarskiy,466885,46.711524,38.276451
32,Yessentukskaya,Russia,Stavropol'skiy,466989,44.026652,42.876373
33,Yessentuki,Russia,Stavropol'skiy,466990,44.044526,42.858909999999995
34,Yershov,Russia,Saratov,467120,51.352068,48.283494
35,Yemva,Russia,Komi Republic,467525,62.598375,50.886569
36,Yelizavetinskaya,Russia,Krasnodarskiy,467854,45.048444,38.799935
37,Yelets,Russia,Lipetsk,467978,52.624190000000006,38.503653
38,Yelan’,Russia,Volgograd,468063,50.950094,43.734677000000005
39,Yelabuga,Russia,Tatarstan,468082,55.75666999999999,52.05446
40,Yegor’yevsk,Russia,MO,468250,65.42891800000001,53.59539399999999
41,Yegorlykskaya,Russia,Rostov,468307,46.565222,40.660858000000005
42,Yefremov,Russia,Tula,468390,53.137598,38.117672999999996
44,Yasnogorsk,Russia,Tula,468671,54.479555000000005,37.689689
45,Yasenevo,Russia,Moscow,468809,45.184143,38.995283
46,Yartsevo,Russia,Smolensk,468866,55.068705,32.689675
47,Yaroslavl,Russia,Jaroslavl,468902,57.626578,39.893858
48,Yaransk,Russia,Kirov,469005,57.304228,47.885855
49,Yanaul,Russia,Bashkortostan,469178,56.264956999999995,54.929823999999996
51,Yablonovskiy,Russia,Adygeya,469844,49.27482,41.394575
52,Vyshniy Volochëk,Russia,Tverskaya,470252,57.589051,34.560336
53,Vyselki,Russia,Krasnodarskiy,470338,45.580039,39.655409999999996
54,Vyksa,Russia,Nizjnij Novgorod,470444,55.320682999999995,42.167961
57,Vyazniki,Russia,Vladimir,470666,56.247021,42.158862
58,Vyaz’ma,Russia,Smolensk,470676,49.193252,119.729249
59,Vyatskiye Polyany,Russia,Kirov,470734,56.222896,51.074919
60,Vsevolozhsk,Russia,Leningrad,471101,60.021317,30.654084
61,Votkinsk,Russia,Udmurtiya,471430,57.051806000000006,53.98739200000001
62,Vostryakovo,Russia,MO,471456,55.38610799999999,37.840416999999995
63,Vostryakovo,Russia,MO,471457,55.38610799999999,37.840416999999995
64,Voskresensk,Russia,MO,471656,55.322978000000006,38.673353000000006
65,Voronezh,Russia,Voronezj,472045,51.660781,39.200269
66,Altuf’yevskiy,Russia,Moscow,472072,55.879849,37.582278
68,Volzhskiy,Russia,Volgograd,472231,48.786293,44.751867
69,Volzhsk,Russia,Mariy-El,472234,55.862267,48.372040999999996
71,Volokolamsk,Russia,MO,472433,56.035728000000006,35.958537
72,Vologda,Russia,Vologda,472459,59.220496,39.891523
73,Volkhov,Russia,Leningrad,472722,59.900538,32.352672
74,Nagornyy,Russia,Moscow,472732,52.981708999999995,49.710217
75,Volgorechensk,Russia,Kostroma,472750,57.439464,41.157455999999996
76,Volgograd,Russia,Volgograd,472757,48.707073,44.51693
77,Volgodonsk,Russia,Rostov,472761,47.516545,42.198423
78,Vnukovo,Russia,Moscow,473021,55.608475,37.2924
80,Vladimir,Russia,Vladimir,473247,56.129056999999996,40.406634999999994
81,Vladikavkaz,Russia,North Ossetia,473249,43.02115,44.68196
82,Vidnoye,Russia,MO,473778,55.557173999999996,37.708644
83,Vichuga,Russia,Ivanovo,473788,57.217138,41.918149
84,Veshnyaki,Russia,Moscow,473972,58.833464,37.223113
85,Vereshchagino,Russia,Perm,475777,58.079761,54.658083
86,Venëv,Russia,Tula,475881,54.336287,38.030887
88,Velikiy Ustyug,Russia,Vologda,476062,60.76035600000001,46.305485
89,Velikiye Luki,Russia,Pskov,476077,56.342316000000004,30.521969
91,Valuyki,Russia,Belgorod,477192,50.211194,38.099914
92,Valday,Russia,Novgorod,477301,57.980199,33.246666999999995
94,Uzlovaya,Russia,Tula,477494,53.97844,38.160299
95,Uvarovo,Russia,Tambov,477626,51.983098999999996,42.261
97,Ust’-Labinsk,Russia,Krasnodarskiy,478044,45.21365,39.691216
98,Ust’-Katav,Russia,Chelyabinsk,478071,54.930289,58.1747
99,Ust’-Dzheguta,Russia,Karachayevo-Cherkesiya,478130,44.083895,41.971042
100,Usman’,Russia,Lipetsk,478317,52.043386,39.736069
101,Uryupinsk,Russia,Volgograd,478544,50.799754,42.015194
102,Urus-Martan,Russia,Chechnya,478581,43.127617,45.540614
104,Unecha,Russia,Brjansk,479028,52.845115,32.670676
105,Ulyanovsk,Russia,Ulyanovsk,479123,54.314192000000006,48.403123
106,Ukhta,Russia,Komi Republic,479411,63.562626,53.684022
107,Uglich,Russia,Jaroslavl,479532,57.526592,38.319371999999994
108,Ufa,Russia,Bashkortostan,479561,54.735147,55.958727
109,Uchkeken,Russia,Karachayevo-Cherkesiya,479687,43.939015000000005,42.515493
110,Uchaly,Russia,Bashkortostan,479703,54.319176,59.378631000000006
111,Uchaly,Russia,Bashkortostan,479704,54.319176,59.378631000000006
112,Tyrnyauz,Russia,Kabardino-Balkariya,479933,43.398084000000004,42.921423
113,Tver,Russia,Tverskaya,480060,56.859846999999995,35.911995000000005
114,Tuymazy,Russia,Bashkortostan,480089,54.599988,53.695007999999994
115,Tutayev,Russia,Jaroslavl,480122,57.8688,39.530759
116,Tula,Russia,Tula,480562,54.193121999999995,37.617348
117,Tuchkovo,Russia,MO,480685,55.614139,36.401146000000004
118,Tuapse,Russia,Krasnodarskiy,480716,44.09564,39.073553000000004
119,Tsimlyansk,Russia,Rostov,480876,47.647714,42.093059999999994
120,Trubchevsk,Russia,Brjansk,481350,52.579077000000005,33.766073
123,Troitsk,Russia,Moscow,481608,55.48484200000001,37.305561
124,Tosno,Russia,Leningrad,481964,59.540664,30.877719
125,Torzhok,Russia,Tverskaya,481985,57.041338,34.96014
126,Tomilino,Russia,MO,482260,55.663126,37.949931
128,Timashëvsk,Russia,Krasnodarskiy,482965,45.615877000000005,38.935069
129,Tikhvin,Russia,Leningrad,483019,59.644209,33.542096
130,Tikhoretsk,Russia,Krasnodarskiy,483029,45.85468,40.125929
131,Teykovo,Russia,Ivanovo,483137,56.85436,40.535471
132,Terek,Russia,Kabardino-Balkariya,483495,43.483865,44.140267
133,Tyoply Stan,Russia,Moscow,483551,54.103589,42.732858
134,Temryuk,Russia,Krasnodarskiy,483661,45.27841,37.370194
136,Tbilisskaya,Russia,Krasnodarskiy,483883,45.364528,40.201765
137,Tambov,Russia,Tambov,484646,52.721219,41.452273999999996
138,Agidel’,Russia,Bashkortostan,484856,55.899834999999996,53.92204
139,Taganrog,Russia,Rostov,484907,47.220983000000004,38.9173
140,Taganskiy,Russia,Moscow,484912,55.713460999999995,38.350714
141,Syzran’,Russia,Samara,484972,53.155781999999995,48.474484999999994
142,Syktyvkar,Russia,Komi Republic,485239,61.66879300000001,50.836399
143,Svobody,Russia,Stavropol'skiy,485432,44.024772999999996,43.051464
144,Sviblovo,Russia,Moscow,485630,56.345614000000005,38.370882
147,Svetlograd,Russia,Stavropol'skiy,485698,45.328573,42.856628
148,Suvorovskaya,Russia,Stavropol'skiy,485871,44.197528999999996,42.649962
149,Suvorov,Russia,Tula,485888,54.122082999999996,36.490339
150,Surovikino,Russia,Volgograd,486071,48.605493,42.844195
151,Surkhakhi,Russia,Ingushetiya,486110,43.184867,44.902846000000004
152,Sukhinichi,Russia,Kaluga,486665,54.101752000000005,35.339319
153,Stupino,Russia,MO,486968,54.886880000000005,38.07839
154,Strunino,Russia,Vladimir,487095,56.374930000000006,38.584078999999996
155,Stroitel’,Russia,Belgorod,487147,50.784551,36.488686
156,Strogino,Russia,Moscow,487150,55.784541000000004,36.381796
157,Sterlitamak,Russia,Bashkortostan,487495,53.630403,55.930825
158,Stavropol’,Russia,Stavropol'skiy,487846,45.044521,41.969083000000005
159,Staryy Oskol,Russia,Belgorod,487928,49.580332,37.651511
160,Staroshcherbinovskaya,Russia,Krasnodarskiy,488635,46.629713,38.667334999999994
161,Starominskaya,Russia,Krasnodarskiy,488742,46.533019,39.053628
162,Starodub,Russia,Brjansk,488852,52.585277000000005,32.760346000000006
163,Staraya Russa,Russia,Novgorod,489088,57.990715,31.355452000000003
164,Staraya Kupavna,Russia,MO,489162,55.810648,38.175624
166,Sovetsk,Russia,Kirov,490067,55.081029,21.888647
167,Sovetsk,Russia,Kaliningrad,490068,55.081029,21.888647
169,Sosnovaya Polyana,Russia,St.-Petersburg,490377,60.264715,30.497328000000003
170,Sosnogorsk,Russia,Komi Republic,490391,63.599109999999996,53.876441
171,Sortavala,Russia,Republic of Karelia,490466,61.703306000000005,30.691723
172,Sorochinsk,Russia,Orenburg,490554,52.429092000000004,53.151016000000006
173,Solntsevo,Russia,Moscow,490971,51.416339,36.755046
174,Solnechnogorsk,Russia,MO,490996,56.185102,36.977631
175,Sol’-Iletsk,Russia,Orenburg,491019,51.16185,54.980336
176,Solikamsk,Russia,Perm,491023,59.648332999999994,56.771029000000006
177,Sokol’niki,Russia,Moscow,491250,57.413878000000004,42.152896999999996
178,Sokol,Russia,Moscow,491280,59.46096800000001,40.099977
179,Sokol,Russia,Vologda,491281,59.46096800000001,40.099977
180,Sofrino,Russia,MO,491352,56.13150600000001,37.936393
181,Sochi,Russia,Krasnodarskiy,491422,43.585525,39.723062
182,Sobinka,Russia,Vladimir,491480,55.993837,40.017943
183,Smolensk,Russia,Smolensk,491687,54.782635,32.045251
184,Slobodskoy,Russia,Kirov,491882,58.731885999999996,50.183673999999996
186,Slavyansk-na-Kubani,Russia,Krasnodarskiy,492094,45.260325,38.12822
188,Skopin,Russia,Rjazan,492376,53.82359,39.549328
189,Skhodnya,Russia,MO,492448,55.954113,37.272197
190,Sim,Russia,Chelyabinsk,492944,54.990716000000006,57.689969
191,Sibay,Russia,Bashkortostan,493160,52.72051,58.666429
192,Shuya,Russia,Ivanovo,493231,56.852037,41.385556
193,Shushary,Russia,St.-Petersburg,493316,59.807219999999994,30.379514
194,Shumerlya,Russia,Chuvashia,493463,55.497933999999994,46.417846000000004
195,Mikhaylovsk,Russia,Stavropol'skiy,493702,45.129667,42.028803
197,Sheksna,Russia,Vologda,495062,58.04845400000001,38.858406
198,Shebekino,Russia,Belgorod,495112,50.404344,36.87931
199,Shchukino,Russia,Moscow,495136,57.623976,39.48349
200,Shchigry,Russia,Kursk,495206,51.87619,36.912
201,Shcherbinka,Russia,Moscow,495260,55.508738,37.563287
202,Shchelkovo,Russia,MO,495344,55.920875,37.991622
203,Shchëkino,Russia,Tula,495394,51.55301,34.491498
204,Shatura,Russia,MO,495518,55.561232,39.563521
206,Shali,Russia,Chechnya,495957,43.1488,45.900991
208,Shakhty,Russia,Rostov,496015,47.709601,40.215796999999995
209,Severskaya,Russia,Krasnodarskiy,496267,44.853759000000004,38.681940999999995
210,Severo-Zadonsk,Russia,Tula,496269,53.012954,139.26683400000002
211,Severoural’sk,Russia,Sverdlovsk,496275,49.193252,119.729249
212,Severomorsk,Russia,Murmansk,496278,69.070337,33.423958
213,Severodvinsk,Russia,Arkhangelskaya,496285,64.562501,39.818175
215,Setun’,Russia,Moscow,496456,55.64656899999999,36.668134
216,Sestroretsk,Russia,St.-Petersburg,496478,60.092411,29.956065999999996
217,Sertolovo,Russia,Leningrad,496519,60.141613,30.211878999999996
218,Serpukhov,Russia,MO,496527,54.913536,37.416763
219,Sergiyev Posad,Russia,MO,496638,56.315291,38.135999
220,Sergach,Russia,Nizjnij Novgorod,496802,55.52010500000001,45.481361
221,Serdobsk,Russia,Penza,496934,52.45568299999999,44.202735
222,Semiluki,Russia,Voronezj,497206,51.695254999999996,39.018953
223,Semikarakorsk,Russia,Rostov,497218,47.517792,40.811505
224,Semënovskoye,Russia,MO,497271,56.587927,37.753748
225,Semënov,Russia,Nizjnij Novgorod,497450,57.368065,43.900847999999996
227,Segezha,Russia,Republic of Karelia,497927,63.743701,34.312616999999996
228,Satka,Russia,Chelyabinsk,498418,55.04049200000001,59.028881000000005
229,Sarov,Russia,Nizjnij Novgorod,498525,54.922788,43.344844
230,Saratov,Russia,Saratov,498677,51.533103000000004,46.034158000000005
231,Sarapul,Russia,Udmurtiya,498687,56.461620999999994,53.803678000000005
232,Saransk,Russia,Mordoviya,498698,54.187433,45.183938
233,Saraktash,Russia,Orenburg,498708,51.7831,56.36526
234,Saint Petersburg,Russia,St.-Petersburg,498817,59.939094999999995,30.315868
235,Samara,Russia,Samara,499099,53.195538,50.101783000000005
237,Salavat,Russia,Bashkortostan,499292,53.361651,55.924671999999994
238,Safonovo,Russia,Smolensk,499452,55.106304,33.237916999999996
239,Rzhev,Russia,Tverskaya,499717,56.262877,34.329065
240,Rybnoye,Russia,Rjazan,499975,54.73080600000001,39.505463
241,Rybinsk,Russia,Jaroslavl,500004,58.04845400000001,38.858406
242,Rybatskoye,Russia,Leningrad,500019,47.008409,37.452219
243,Ryazhsk,Russia,Rjazan,500047,53.708949,40.062894
244,Ryazan’,Russia,Rjazan,500096,54.62921600000001,39.736375
245,Ruzayevka,Russia,Mordoviya,500299,54.058268000000005,44.94911
246,Rublëvo,Russia,Moscow,500843,58.490088,49.437488
247,Rtishchevo,Russia,Saratov,500886,52.257455,43.785657
248,Rostov-na-Donu,Russia,Rostov,501175,47.222078,39.720349
249,Rostov,Russia,Jaroslavl,501183,47.222078,39.720349
250,Rostokino,Russia,Moscow,501187,56.386159,38.517666
251,Rossosh’,Russia,Voronezj,501215,50.192899,39.57652
252,Rossosh’,Russia,Voronezj,501231,50.192899,39.57652
253,Roslavl’,Russia,Smolensk,501283,53.947309,32.85678
254,Roshal’,Russia,MO,501320,55.66328299999999,39.862759000000004
255,Rodniki,Russia,Ivanovo,501730,57.107152,41.733366
256,Revda,Russia,Sverdlovsk,502011,56.800079000000004,59.90871800000001
257,Reutov,Russia,MO,502018,55.760515000000005,37.855140999999996
258,Razumnoye,Russia,Belgorod,502400,50.533631,36.689559
259,Rayevskiy,Russia,Bashkortostan,502540,54.064974,54.932905000000005
260,Rasskazovo,Russia,Tambov,502793,52.653842000000004,41.874302
261,Ramenki,Russia,Moscow,502971,54.81600600000001,39.597064
262,Pyatigorsk,Russia,Stavropol'skiy,503550,44.03929,43.070840000000004
263,Pushkino,Russia,MO,503977,56.011182,37.847046999999996
264,Pushkin,Russia,St.-Petersburg,504003,59.722463,30.416946999999997
265,Pushchino,Russia,MO,504042,54.832479000000006,37.620977
266,Pugachev,Russia,Saratov,504250,52.014871,48.795588
268,Protvino,Russia,MO,504576,54.87062099999999,37.218315999999994
269,Proletarsk,Russia,Rostov,504831,46.703849,41.727544
270,Prokhladnyy,Russia,Kabardino-Balkariya,504935,43.758962,44.010083
271,Priyutovo,Russia,Bashkortostan,505014,53.895217,53.936889
272,Privolzhskiy,Russia,Saratov,505057,51.410957,46.048082
273,Privolzhsk,Russia,Ivanovo,505060,57.380662,41.28083
274,Priozërsk,Russia,Leningrad,505230,61.036554,30.119838
275,Primorsko-Akhtarsk,Russia,Krasnodarskiy,505259,46.043502000000004,38.177645
277,Povorino,Russia,Voronezj,505806,51.190773,42.245576
278,Kotlovka,Russia,Moscow,506043,54.680478,50.636919
279,Annino,Russia,Moscow,506117,52.646423,33.859443
280,Polyarnyye Zori,Russia,Murmansk,506762,67.365788,32.500966
281,Polyarnyy,Russia,Murmansk,506763,69.197402,33.437226
283,Pokrov,Russia,Vladimir,507599,55.916633,39.173374
284,Pokhvistnevo,Russia,Samara,507624,53.653282,52.122346
286,Podol’sk,Russia,MO,508101,54.510741,30.429585999999997
287,Pochep,Russia,Brjansk,508656,52.92913000000001,33.454267
288,Ryazanskiy,Russia,Moscow,508751,54.62921600000001,39.736375
289,Plavsk,Russia,Tula,509052,53.706843000000006,37.291987
290,Pikalëvo,Russia,Leningrad,509598,59.513113,34.177303
291,Petushki,Russia,Vladimir,509697,55.930967,39.4599
292,Petrozavodsk,Russia,Republic of Karelia,509820,61.785017,34.346878000000004
293,Petrovskaya,Russia,MO,509981,45.430202,37.960765
294,Petrovsk,Russia,Saratov,509987,52.314023,45.389931
295,Petrodvorets,Russia,St.-Petersburg,510225,59.884027,29.908571999999996
296,Peterhof,Russia,St.-Petersburg,510291,59.884027,29.908571999999996
297,Pestovo,Russia,Novgorod,510364,58.599070999999995,35.798097999999996
298,Pervoural’sk,Russia,Sverdlovsk,510808,56.905839,59.943249
300,Perm,Russia,Perm,511196,58.010374,56.229397999999996
301,Pereslavl’-Zalesskiy,Russia,Jaroslavl,511359,56.739613,38.85298
303,Penza,Russia,Penza,511565,53.195063,45.018316
304,Pechora,Russia,Komi Republic,511794,65.148602,57.223977000000005
305,Pavlovskiy Posad,Russia,MO,512023,55.779393000000006,38.651317999999996
306,Pavlovskaya,Russia,Krasnodarskiy,512051,46.130536,39.790965
307,Pavlovsk,Russia,St.-Petersburg,512052,59.686411,30.431597999999997
308,Pavlovsk,Russia,Voronezj,512053,59.686411,30.431597999999997
309,Pashkovskiy,Russia,Krasnodarskiy,512382,45.013944,39.133641
310,Pallasovka,Russia,Volgograd,513042,50.050167,46.880398
311,Ozëry,Russia,MO,513378,54.854087,38.559824
312,Ozerki,Russia,St.-Petersburg,513471,56.583475,95.932643
313,Otradnyy,Russia,Samara,513883,53.376555,51.348851
314,Otradnoye,Russia,Moscow,513896,59.774086,30.794544000000002
315,Otradnoye,Russia,Leningrad,513898,59.774086,30.794544000000002
316,Otradnaya,Russia,Krasnodarskiy,513911,44.39317,41.515614
318,Ostrogozhsk,Russia,Voronezj,514198,50.860139000000004,39.082365
319,Ostashkov,Russia,Tverskaya,514259,57.142872,33.115441
321,Osa,Russia,Perm,514706,57.279672,55.468723
322,Orsk,Russia,Orenburg,514734,51.229362,58.475196
323,Orlovskiy,Russia,Rostov,514796,46.872887,42.053022
324,Orenburg,Russia,Orenburg,515003,51.768198999999996,55.096955
325,Orël,Russia,Orjol,515012,52.97037099999999,36.063837
326,Orekhovo-Zuyevo,Russia,MO,515024,55.805837,38.981592
328,Ordzhonikidzevskaya,Russia,Ingushetiya,515083,43.320353000000004,45.047682
329,Onega,Russia,Arkhangelskaya,515246,63.914485,38.086646
330,Omutninsk,Russia,Kirov,515267,58.66406,52.177152
331,Olenegorsk,Russia,Murmansk,515698,68.140457,33.270095
332,Tsotsin-Yurt,Russia,Chechnya,515804,49.193252,119.729249
333,Oktyabr’skiy,Russia,Bashkortostan,515879,45.001435,38.931421
334,Odintsovo,Russia,MO,516215,55.678858999999996,37.263985999999996
337,Obninsk,Russia,Kaluga,516436,55.11201,36.586531
338,Nytva,Russia,Perm,516576,57.939127,55.328621999999996
339,Nyandoma,Russia,Arkhangelskaya,516647,61.669821999999996,40.204388
340,Nurlat,Russia,Tatarstan,516716,54.42811700000001,50.804958
341,Novyy Oskol,Russia,Belgorod,516931,50.760542,37.864816
344,Novozybkov,Russia,Brjansk,517269,52.536717,31.933221999999997
345,Novovoronezh,Russia,Voronezj,517716,51.309213,39.216277000000005
346,Novouzensk,Russia,Saratov,517739,50.466326,48.132119
347,Novoul’yanovsk,Russia,Ulyanovsk,517766,49.193252,119.729249
348,Novotroitsk,Russia,Orenburg,517836,51.196417,58.301767000000005
349,Novotitarovskaya,Russia,Krasnodarskiy,517842,45.237665,38.976544
350,Novoshakhtinsk,Russia,Rostov,517963,47.754315000000005,39.934696
351,Novorossiysk,Russia,Krasnodarskiy,518255,44.723912,37.768974
352,Novopokrovskaya,Russia,Krasnodarskiy,518325,45.953825,40.707004
353,Novopavlovsk,Russia,Stavropol'skiy,518383,43.957369,43.631901
354,Novomoskovsk,Russia,Tula,518557,54.010993000000006,38.290896000000004
355,Novomichurinsk,Russia,Rjazan,518602,54.034574,39.750865000000005
357,Novokuybyshevsk,Russia,Samara,518659,53.09946899999999,49.947767
358,Novokubansk,Russia,Krasnodarskiy,518682,45.103792999999996,41.043927000000004
360,Novogireyevo,Russia,MO,518879,56.557821999999994,37.532466
361,Novodvinsk,Russia,Arkhangelskaya,518909,64.41368299999999,40.820821
362,Novocherkassk,Russia,Rostov,518970,47.422052,40.093725
363,Novocheboksarsk,Russia,Chuvashia,518976,56.109551,47.479125
364,Novoanninskiy,Russia,Volgograd,519062,50.529658000000005,42.66667
366,Velikiy Novgorod,Russia,Novgorod,519336,58.52281,31.269915
367,Novaya Usman’,Russia,Voronezj,519447,51.643972,39.412864
369,Noginsk,Russia,MO,520068,55.854521999999996,38.441831
370,Nizhnyaya Tura,Russia,Sverdlovsk,520204,58.63108199999999,59.852340000000005
371,Nizhniy Tagil,Russia,Sverdlovsk,520494,57.907605000000004,59.972211
372,Nizhniy Novgorod,Russia,Nizjnij Novgorod,520555,56.326887,44.005986
373,Nizhniy Lomov,Russia,Penza,520574,53.530043000000006,43.672990000000006
374,Nizhnekamsk,Russia,Tatarstan,521118,55.634069999999994,51.809112
375,Nikulino,Russia,Moscow,521416,56.112367000000006,38.071446
379,Nikolayevsk,Russia,Volgograd,521874,53.21448,63.632073
380,Nikel’,Russia,Murmansk,522260,69.410035,30.210065000000004
381,Nezlobnaya,Russia,Stavropol'skiy,522301,44.116845,43.408516999999996
382,Nevinnomyssk,Russia,Stavropol'skiy,522377,44.638287,41.936060999999995
383,Nevel’,Russia,Pskov,522410,56.017483,29.917240999999997
384,Nesterovskaya,Russia,Ingushetiya,522470,61.79982,40.844941
385,Nerekhta,Russia,Kostroma,522594,57.454414,40.572446
386,Nelidovo,Russia,Tverskaya,522775,56.223296,32.776587
387,Neftekamsk,Russia,Bashkortostan,522942,56.088407999999994,54.248236
388,Neftegorsk,Russia,Samara,522945,52.79722099999999,51.163799
389,Nazran’,Russia,Ingushetiya,523064,43.225727,44.764641
390,Navashino,Russia,Nizjnij Novgorod,523198,55.543888,42.18874
391,Nar'yan-Mar,Russia,Nenetskiy Avtonomnyy Okrug,523392,67.63805,53.006926
392,Nartkala,Russia,Kabardino-Balkariya,523405,43.556734000000006,43.862021999999996
393,Naro-Fominsk,Russia,MO,523426,55.386185,36.734484
394,Nal’chik,Russia,Kabardino-Balkariya,523523,43.499725,43.6032
395,Nakhabino,Russia,MO,523553,55.848751,37.187782
396,Naberezhnyye Chelny,Russia,Tatarstan,523750,55.740776000000004,52.406384
397,Mytishchi,Russia,MO,523812,55.910483,37.736402000000005
398,Murom,Russia,Vladimir,524294,55.57916899999999,42.052411
399,Murmansk,Russia,Murmansk,524305,68.970682,33.074981
400,Mtsensk,Russia,Orjol,524640,53.278939,36.575006
401,Mozhga,Russia,Udmurtiya,524699,56.442802,52.213839
402,Mozhaysk,Russia,MO,524712,55.506714,36.017358
403,Mozdok,Russia,North Ossetia,524736,43.735413,44.653878000000006
404,Mostovskoy,Russia,Krasnodarskiy,524809,44.414357,40.790278
405,Moscow,Russia,Moscow,524901,55.755814,37.617635
406,Morshansk,Russia,Tambov,525138,53.443611,41.811627
407,Morozovsk,Russia,Rostov,525162,48.351157,41.830878000000006
408,Monino,Russia,MO,525396,55.839289,38.195342
409,Monchegorsk,Russia,Murmansk,525404,67.938917,32.937062
411,Mineralnye Vody,Russia,Stavropol'skiy,526480,44.208799,43.13834
412,Millerovo,Russia,Rostov,526558,48.92173,40.394849
413,Mikhaylovka,Russia,Volgograd,527012,50.070847,43.239723
414,Mikhalkovo,Russia,Moscow,527057,54.320283999999994,21.300583
415,Michurinsk,Russia,Tambov,527191,52.893913,40.498011
416,Metallostroy,Russia,St.-Petersburg,527361,59.807803,30.573514000000003
417,Menzelinsk,Russia,Tatarstan,527529,55.719972,53.101429
418,Mendeleyevsk,Russia,Tatarstan,527579,55.895185999999995,52.314397
419,Meleuz,Russia,Bashkortostan,527717,52.958964,55.928309999999996
420,Melenki,Russia,Vladimir,527740,55.338715,41.634029999999996
421,Medvezh’yegorsk,Russia,Republic of Karelia,527888,49.193252,119.729249
422,Medvedovskaya,Russia,Krasnodarskiy,527968,45.449212,39.010123
423,Medvedevo,Russia,Mariy-El,528056,54.20229200000001,31.123427000000003
424,Mednogorsk,Russia,Orenburg,528109,51.403794,57.58324
425,Maykop,Russia,Adygeya,528293,44.608865,40.098548
426,Matveyevskoye,Russia,Moscow,528454,56.525966000000004,35.760386
427,Marks,Russia,Saratov,529073,51.713333,46.740009
429,Mar’ina Roshcha,Russia,Moscow,529334,55.79693100000001,37.614374
430,Manturovo,Russia,Kostroma,529505,58.328617,44.757292
431,Yaroslavskiy,Russia,Moscow,530088,44.185359000000005,132.22500300000002
432,Maloyaroslavets,Russia,Kaluga,530849,55.011897,36.462555
433,Malgobek,Russia,Ingushetiya,531129,43.509645,44.590188
434,Malakhovka,Russia,MO,531820,55.64258,38.009373
435,Makhachkala,Russia,Dagestan,532096,42.983059999999995,47.504682
436,Magnitogorsk,Russia,Chelyabinsk,532288,53.407157999999995,58.980281999999995
437,Lyudinovo,Russia,Kaluga,532459,53.864532999999994,34.447722999999996
438,Lyublino,Russia,Moscow,532535,46.915185,141.99549299999998
439,Lyubertsy,Russia,MO,532615,55.67649399999999,37.898115999999995
440,Lytkarino,Russia,MO,532657,55.579297,37.908986
441,Lys’va,Russia,Perm,532675,58.100413,57.811655
442,Lyskovo,Russia,Nizjnij Novgorod,532715,56.021356999999995,45.040962
443,Luzhniki,Russia,Moscow,533067,54.84486999999999,38.117009
444,Lukhovitsy,Russia,MO,533543,54.965217,39.025394
446,Losino-Petrovskiy,Russia,MO,534015,55.87218299999999,38.200983
447,Lomonosov,Russia,St.-Petersburg,534341,59.910740000000004,29.776466
448,Lodeynoye Pole,Russia,Leningrad,534560,60.734978000000005,33.548869
449,Lobnya,Russia,MO,534595,56.012268999999996,37.474821
450,Livny,Russia,Orjol,534701,52.426549,37.608041
451,Liski,Russia,Voronezj,534838,50.987297999999996,39.497099
452,Lipetsk,Russia,Lipetsk,535121,52.608819999999994,39.59922
453,Likino-Dulevo,Russia,MO,535243,55.707786,38.957741999999996
457,Levoberezhnaya,Russia,MO,535451,56.76197,36.372696000000005
458,Komendantsky aerodrom,Russia,St.-Petersburg,535729,60.00158100000001,30.281390999999996
459,Lermontov,Russia,Stavropol'skiy,535886,44.105344,42.973175
462,Leninsk,Russia,Volgograd,536156,48.693682,45.199228000000005
463,Leninogorsk,Russia,Tatarstan,536162,54.599028000000004,52.44266700000001
464,Tsaritsyno,Russia,Moscow,536164,55.457969999999996,65.070941
465,Leningradskaya,Russia,Krasnodarskiy,536200,46.320547,39.392886
466,Yubileyny,Russia,MO,536206,54.614259999999994,55.457961
468,Lebedyan’,Russia,Lipetsk,536518,53.020489000000005,39.13135
470,Lakinsk,Russia,Vladimir,537107,56.018001,39.956525
471,Labinsk,Russia,Krasnodarskiy,537281,44.635387,40.724459
472,Dugulubgey,Russia,Kabardino-Balkariya,537345,43.660571999999995,43.540021
473,Kuznetsk,Russia,Penza,537737,53.119335,46.601165
475,Kuvandyk,Russia,Orenburg,538138,51.478483000000004,57.361168000000006
476,Kuskovo,Russia,MO,538321,56.64201,85.23175
477,Kushva,Russia,Sverdlovsk,538340,58.282566,59.76468199999999
481,Kursk,Russia,Kursk,538560,51.730361,36.192646999999994
482,Kurovskoye,Russia,MO,538601,55.57914399999999,38.920866
483,Kurganinsk,Russia,Krasnodarskiy,538836,44.887640999999995,40.591364
485,Kurchaloy,Russia,Chechnya,538913,43.20463,46.088955
487,Kungur,Russia,Perm,539147,57.42881,56.94420600000001
488,Kumertau,Russia,Bashkortostan,539283,52.756523,55.796976
489,Kulebaki,Russia,Nizjnij Novgorod,539555,55.429716000000006,42.512483
490,Kukmor,Russia,Tatarstan,539689,56.186599,50.893981
491,Kudymkar,Russia,Perm,539817,59.014548,54.664182999999994
493,Kubinka,Russia,MO,540030,55.575556000000006,36.695209000000006
494,Kstovo,Russia,Nizjnij Novgorod,540103,56.15067,44.206751000000004
495,Krymsk,Russia,Krasnodarskiy,540251,44.934986,37.986196
496,Kropotkin,Russia,Krasnodarskiy,540761,45.434686,40.575994
497,Kronshtadt,Russia,St.-Petersburg,540771,59.988693999999995,29.773627
498,Krasnyy Sulin,Russia,Rostov,541404,47.894709000000006,40.057990000000004
500,Krasnoye Selo,Russia,St.-Petersburg,542000,59.733059999999995,30.087804
501,Krasnovishersk,Russia,Perm,542184,60.412820999999994,57.083301
502,Krasnoufimsk,Russia,Sverdlovsk,542199,56.617743999999995,57.770692000000004
503,Krasnokamsk,Russia,Perm,542327,58.078357,55.736376
504,Krasnogvardeyskoye,Russia,Stavropol'skiy,542334,50.648389,38.400553
505,Krasnogorsk,Russia,MO,542374,55.831099,37.330192
506,Krasnodar,Russia,Krasnodarskiy,542420,45.035470000000004,38.975313
507,Krasnoarmeyskaya,Russia,Krasnodarskiy,542461,47.449407,43.170562
508,Krasnoarmeysk,Russia,MO,542463,51.023604999999996,45.695044
509,Krasnoarmeysk,Russia,Saratov,542464,51.023604999999996,45.695044
511,Koz’modem’yansk,Russia,Mariy-El,543018,70.913267,136.449645
512,Kozhukhovo,Russia,MO,543254,58.38945,35.063348
515,Kovylkino,Russia,Mordoviya,543436,54.039201,43.919056
516,Kovrov,Russia,Vladimir,543460,56.363628000000006,41.31122
517,Kovdor,Russia,Murmansk,543508,67.562914,30.474025
519,Kotovo,Russia,Volgograd,543633,50.322058,44.801319
520,Kotlas,Russia,Arkhangelskaya,543704,61.25297,46.633217
521,Kotel’nikovo,Russia,Volgograd,543728,53.563759999999995,43.26184
522,Kotel’niki,Russia,MO,543731,55.65984,37.863199
523,Kotel’nich,Russia,Kirov,543737,49.193252,119.729249
524,Kostroma,Russia,Kostroma,543878,57.767961,40.926858
525,Kostomuksha,Russia,Republic of Karelia,543899,64.588014,30.598360999999997
527,Koryazhma,Russia,Arkhangelskaya,544370,61.315335,47.159855
528,Korenovsk,Russia,Krasnodarskiy,544896,45.462742,39.448033
529,Konstantinovsk,Russia,Rostov,545277,47.577341,41.096694
530,Kondrovo,Russia,Kaluga,545575,54.807430000000004,35.926646999999996
531,Kondopoga,Russia,Republic of Karelia,545626,62.20475,34.272758
532,Konakovo,Russia,Tverskaya,545673,56.71321700000001,36.779309000000005
533,Kommunar,Russia,Leningrad,545788,59.621609,30.393483000000003
534,Kolpino,Russia,St.-Petersburg,546105,59.749012,30.597607
536,Kolomna,Russia,MO,546230,55.103152,38.752917
539,Kokhma,Russia,Ivanovo,546672,56.932531000000004,41.093208000000004
541,Klin,Russia,MO,547523,56.33169300000001,36.728716
542,Klimovsk,Russia,MO,547560,61.285627000000005,53.647901
543,Kizlyar,Russia,Dagestan,547840,43.84738,46.711684999999996
544,Kizilyurt,Russia,Dagestan,547849,43.204637,46.866878
545,Kizel,Russia,Perm,547875,59.049425,57.653875
546,Kislovodsk,Russia,Stavropol'skiy,548114,43.905225,42.716796
547,Kirzhach,Russia,Vladimir,548278,56.161708999999995,38.872052000000004
548,Kirsanov,Russia,Tambov,548330,52.650645999999995,42.728663
549,Kirovsk,Russia,Murmansk,548391,67.61205600000001,33.668228000000006
550,Kirovsk,Russia,Leningrad,548392,67.61205600000001,33.668228000000006
551,Kirovo-Chepetsk,Russia,Kirov,548395,58.55658100000001,50.043932
552,Kirov,Russia,Kirov,548408,58.603591,49.668014
553,Kirov,Russia,Kaluga,548410,58.603591,49.668014
554,Kirishi,Russia,Leningrad,548442,59.449695,32.008707
555,Kireyevsk,Russia,Tula,548506,53.934943999999994,37.928542
557,Kineshma,Russia,Ivanovo,548605,57.44254399999999,42.168923
559,Kinel’,Russia,Samara,548625,53.221004,50.634394
560,Kimry,Russia,Tverskaya,548652,56.873338000000004,37.355678000000005
561,Kimovsk,Russia,Tula,548658,53.972149,38.533063
562,Khot'kovo,Russia,MO,549373,56.252146999999994,37.978803000000006
566,Khimki,Russia,Moscow,550280,55.888740000000006,37.43039
567,Khasavyurt,Russia,Dagestan,550478,43.246265,46.590044
568,Kharabali,Russia,Astrakhan,550671,47.409315,47.252058
569,Khadyzhensk,Russia,Krasnodarskiy,550846,44.422804,39.537326
570,Kazan,Russia,Tatarstan,551487,55.796289,49.108795
571,Katav-Ivanovsk,Russia,Chelyabinsk,551794,54.752074,58.198443000000005
573,Kaspiysk,Russia,Dagestan,551847,42.890833,47.635674
574,Kasimov,Russia,Rjazan,551891,54.937288,41.391368
575,Kashira,Russia,MO,551964,54.834589,38.151540000000004
576,Kashin,Russia,Tverskaya,551986,57.35838100000001,37.613440000000004
577,Karachev,Russia,Brjansk,552920,53.121593999999995,34.982796
578,Karachayevsk,Russia,Karachayevo-Cherkesiya,552924,43.773167,41.914313
579,Karabulak,Russia,Ingushetiya,552951,43.305594,44.909403999999995
580,Karabanovo,Russia,Vladimir,552977,56.31326899999999,38.703438
582,Kantyshevo,Russia,Ingushetiya,553092,43.228066,44.648453
583,Kanevskaya,Russia,Krasnodarskiy,553152,46.084804999999996,38.971944
584,Kandalaksha,Russia,Murmansk,553190,67.151252,32.412822999999996
585,Kanash,Russia,Chuvashia,553216,55.50694300000001,47.491764
586,Kamyzyak,Russia,Astrakhan,553248,46.110571,48.073235
587,Kamyshin,Russia,Volgograd,553287,50.083698,45.407367
588,Kamensk-Shakhtinskiy,Russia,Rostov,553399,48.320515,40.268923
589,Kaluga,Russia,Kaluga,553915,54.513844999999996,36.261215
590,Kalininsk,Russia,Saratov,554199,51.499671,44.485479999999995
591,Korolev,Russia,MO,554233,55.922212,37.854628999999996
592,Kaliningrad,Russia,Kaliningrad,554234,54.707390000000004,20.507307
593,Kalach-na-Donu,Russia,Volgograd,554397,48.681995,43.538234
594,Kalach,Russia,Voronezj,554410,50.424119,41.01624
595,Kachkanar,Russia,Sverdlovsk,554599,58.70511,59.483959
596,Kabanovo,Russia,MO,554679,57.656161,38.358036
597,Izobil’nyy,Russia,Stavropol'skiy,554770,49.193252,119.729249
598,Izmaylovo,Russia,MO,554787,53.037282999999995,36.884834999999995
599,Izhevsk,Russia,Udmurtiya,554840,56.852593000000006,53.204843000000004
600,Izberbash,Russia,Dagestan,554894,42.565141,47.871078000000004
601,Ivanteyevka,Russia,MO,555111,55.971718,37.924338
602,Ivanovskoye,Russia,Moscow,555129,55.813238,37.29991
603,Ivanovo,Russia,Ivanovo,555312,57.000347999999995,40.973921000000004
604,Istra,Russia,MO,555746,55.914287,36.860284
605,Ishimbay,Russia,Bashkortostan,555980,53.454620999999996,56.04395
606,Ipatovo,Russia,Stavropol'skiy,556230,45.717419,42.911147
607,Inza,Russia,Ulyanovsk,556283,53.857034999999996,46.351649
608,Inozemtsevo,Russia,Stavropol'skiy,556320,44.097175,43.089507
610,Igra,Russia,Udmurtiya,557469,57.540193,53.086211
611,Gus’-Khrustal’nyy,Russia,Vladimir,557775,55.619422,40.65739
612,Gusev,Russia,Kaliningrad,557882,54.591841,22.201117
613,Gul’kevichi,Russia,Krasnodarskiy,558066,49.193252,119.729249
614,Gukovo,Russia,Rostov,558082,48.058442,39.940274
615,Gudermes,Russia,Chechnya,558118,43.35188,46.103535
616,Gubkin,Russia,Belgorod,558146,51.283644,37.534748
617,Gubakha,Russia,Perm,558209,58.83701800000001,57.554575
618,Gryazovets,Russia,Vologda,558236,58.875793,40.248422999999995
619,Gryazi,Russia,Lipetsk,558312,52.496186,39.95533
620,Groznyy,Russia,Chechnya,558418,43.317881,45.695358
621,Gribanovskiy,Russia,Voronezj,558799,51.45641,41.979971
623,Goryachiy Klyuch,Russia,Krasnodarskiy,559317,44.634246000000005,39.136426
624,Goryachevodskiy,Russia,Stavropol'skiy,559320,44.023716,43.097332
625,Gorodishche,Russia,Volgograd,559654,53.272757999999996,45.70267
626,Gorodets,Russia,Nizjnij Novgorod,559678,56.644822,43.472351
627,Gorelovo,Russia,St.-Petersburg,560142,59.768106,30.147281
629,Golitsyno,Russia,MO,560756,55.61594399999999,36.987117
630,Glazov,Russia,Udmurtiya,561347,58.140809999999995,52.674234999999996
631,Giaginskaya,Russia,Adygeya,561515,44.876208,40.059481
632,Georgiyevsk,Russia,Stavropol'skiy,561627,44.148599,43.473896
633,Gelendzhik,Russia,Krasnodarskiy,561667,44.561141,38.076809000000004
634,Gay,Russia,Orenburg,561731,51.465019,58.443718999999994
635,Gavrilov-Yam,Russia,Jaroslavl,561762,57.303309,39.849086
636,Gatchina,Russia,Leningrad,561887,59.568456000000005,30.124473
637,Galich,Russia,Kostroma,562161,58.381199,42.34749
638,Gagarin,Russia,Smolensk,562237,55.584304,39.540982
639,Furmanov,Russia,Ivanovo,562309,57.252601,41.106189
640,Fryazino,Russia,MO,562319,55.957938,38.052339
641,Fryazevo,Russia,MO,562321,55.728525,38.468303999999996
642,Frolovo,Russia,Volgograd,562389,49.765861,43.649291999999996
644,Ezhva,Russia,Komi Republic,563379,61.796772,50.720983000000004
645,Engel’s,Russia,Saratov,563464,51.487794,46.125498
646,Enem,Russia,Adygeya,563472,44.926403,38.910715
647,Elista,Russia,Kalmykiya,563514,46.307743,44.269759
648,Elektrougli,Russia,MO,563522,55.716859,38.219659
649,Elektrostal’,Russia,MO,563523,55.784445,38.444849
650,Elektrogorsk,Russia,MO,563524,55.883161,38.786209
651,Ekazhevo,Russia,Ingushetiya,563551,43.208389000000004,44.819078999999995
652,Dzerzhinskiy,Russia,MO,563705,55.630939,37.849616
653,Dzerzhinsk,Russia,Nizjnij Novgorod,563708,56.238377,43.461625
654,Dyurtyuli,Russia,Bashkortostan,563719,55.48529,54.873463
655,Dyat’kovo,Russia,Brjansk,563822,53.597306,34.339656
656,Dubovka,Russia,Volgograd,564654,49.055369,44.826957
657,Dubna,Russia,MO,564719,56.744002,37.173176
659,Donskoye,Russia,Stavropol'skiy,565289,45.454757,41.975569
660,Donskoy,Russia,Tula,565290,53.96787,38.337222
661,Donetsk,Russia,Rostov,565348,48.015877,37.80285
662,Domodedovo,Russia,MO,565381,55.437102,37.768004
663,Dolgoprudnyy,Russia,MO,565614,49.193252,119.729249
664,Dobryanka,Russia,Perm,565778,58.468063,56.403985999999996
665,Dmitrov,Russia,MO,565955,56.343942000000006,37.520348
666,Divnoye,Russia,Stavropol'skiy,566155,45.911846999999995,43.34285
667,Dinskaya,Russia,Krasnodarskiy,566181,45.21325,39.229132
669,Desnogorsk,Russia,Smolensk,566384,54.152366,33.287872
670,Derbent,Russia,Dagestan,566532,42.057669,48.288776
672,Dedovsk,Russia,MO,566854,55.859984,37.120669
674,Davlekanovo,Russia,Bashkortostan,567006,54.222727,55.03126999999999
675,Dankov,Russia,Lipetsk,567109,53.246196999999995,39.134414
676,Danilov,Russia,Jaroslavl,567183,58.187861,40.174815
677,Dagestanskiye Ogni,Russia,Dagestan,567290,42.115189,48.193914
679,Chusovoy,Russia,Perm,567434,58.297548,57.819318
680,Chudovo,Russia,Novgorod,567774,59.121190000000006,31.670284999999996
681,Chistopol’,Russia,Tatarstan,567990,55.372333999999995,50.643575
682,Chishmy,Russia,Bashkortostan,568012,54.58933100000001,55.38025699999999
683,Chernyanka,Russia,Belgorod,568587,50.939107,37.806298999999996
684,Chernyakhovsk,Russia,Kaliningrad,568595,54.630706,21.819503
685,Chernushka,Russia,Perm,568608,56.516009999999994,56.076361
686,Chernogolovka,Russia,MO,568808,56.01000500000001,38.379245000000004
687,Cherkessk,Russia,Karachayevo-Cherkesiya,569154,44.226863,42.04677
688,Cherepovets,Russia,Vologda,569223,59.122612,37.903461
690,Chekhov,Russia,MO,569591,55.149851,37.466997
691,Chegem,Russia,Kabardino-Balkariya,569639,43.567114000000004,43.586626
692,Cheboksary,Russia,Chuvashia,569696,56.146277000000005,47.251079
693,Chaykovskiy,Russia,Perm,569742,56.778061,54.14775899999999
694,Chapayevsk,Russia,Samara,569955,52.981708999999995,49.710217
695,Buzuluk,Russia,Orenburg,570427,52.788116,52.262438
696,Buynaksk,Russia,Dagestan,570479,42.821749,47.115927
698,Buturlinovka,Russia,Voronezj,570563,50.835367,40.584825
700,Buinsk,Russia,Tatarstan,571155,54.964153,48.290141999999996
701,Buguruslan,Russia,Orenburg,571159,53.6523,52.43260600000001
702,Bugul’ma,Russia,Tatarstan,571170,49.193252,119.729249
703,Budënnovsk,Russia,Stavropol'skiy,571306,44.781528,44.165024
704,Bryukhovetskaya,Russia,Krasnodarskiy,571420,45.801997,38.997285999999995
705,Bryansk,Russia,Brjansk,571476,53.243562,34.363407
706,Bronnitsy,Russia,MO,571557,55.425470999999995,38.264108
708,Borovichi,Russia,Novgorod,572154,58.38821899999999,33.914025
709,Borisoglebsk,Russia,Voronezj,572525,51.367725,42.074977000000004
711,Bol’shaya Setun’,Russia,MO,574675,55.709911,37.451752
712,Bologoye,Russia,Tverskaya,575349,57.885626,34.053776
713,Boksitogorsk,Russia,Leningrad,575410,59.473572,33.847675
714,Boguchar,Russia,Voronezj,575457,49.935512,40.559079
715,Bogorodskoye,Russia,MO,575505,57.827819999999996,50.750484
716,Bogorodsk,Russia,Nizjnij Novgorod,575560,55.854521999999996,38.441831
717,Bogoroditsk,Russia,Tula,575591,53.77069399999999,38.131687
718,Bobrov,Russia,Voronezj,575948,51.097718,40.035604
719,Blagoveshchensk,Russia,Bashkortostan,576116,50.29064,127.527173
720,Blagodarnyy,Russia,Stavropol'skiy,576172,45.095649,43.440021
721,Biryulëvo,Russia,Moscow,576279,55.446355000000004,36.620622
722,Birsk,Russia,Bashkortostan,576317,55.417531000000004,55.53070699999999
723,Bibirevo,Russia,Moscow,576432,56.652021999999995,38.893836
724,Bezhetsk,Russia,Tverskaya,576566,57.781313,36.693188
725,Bezenchuk,Russia,Samara,576590,52.984393000000004,49.433212
726,Beslan,Russia,North Ossetia,576697,43.19376,44.533792
727,Berezniki,Russia,Perm,577206,59.407922,56.804015
728,Beloretsk,Russia,Bashkortostan,577881,53.967620999999994,58.410022999999995
729,Belorechensk,Russia,Krasnodarskiy,577893,44.761140999999995,39.871140000000004
730,Beloozërskiy,Russia,MO,577901,47.110215000000004,45.965346999999994
731,Belgorod,Russia,Belgorod,578072,50.595659999999995,36.587223
733,Belebey,Russia,Bashkortostan,578120,54.103441000000004,54.111279
734,Belaya Kalitva,Russia,Rostov,578155,48.177644,40.802388
735,Belaya Glina,Russia,Krasnodarskiy,578169,46.073665000000005,40.871324
736,Baymak,Russia,Bashkortostan,578534,52.59125699999999,58.311199
737,Bavly,Russia,Tatarstan,578638,54.406333,53.245895999999995
738,Bataysk,Russia,Rostov,578740,47.138333,39.744469
739,Barysh,Russia,Ulyanovsk,578931,53.653468000000004,47.118029
740,Balezino,Russia,Udmurtiya,579432,57.976496,53.007402
741,Balashov,Russia,Saratov,579460,51.554601,43.146469
742,Balashikha,Russia,MO,579464,55.796339,37.938199
743,Balakovo,Russia,Saratov,579492,52.018423999999996,47.819666999999995
744,Novaya Balakhna,Russia,Nizjnij Novgorod,579514,56.50455600000001,43.602005
745,Balabanovo,Russia,Kaluga,579529,55.172311,36.660543
746,Baksan,Russia,Kabardino-Balkariya,579574,43.681939,43.534613
747,Bakal,Russia,Chelyabinsk,579738,54.938064000000004,58.809171
748,Bagayevskaya,Russia,Rostov,579771,47.312062,40.383485
749,Babushkin,Russia,Moscow,579870,51.715833,105.86436299999998
750,Azov,Russia,Rostov,580054,47.112442,39.423581
751,Avtury,Russia,Chechnya,580218,43.16317,46.00313
753,Atkarsk,Russia,Saratov,580420,51.873632,45.000296
754,Astrakhan,Russia,Astrakhan,580497,46.347869,48.033574
755,Asha,Russia,Chelyabinsk,580660,54.990628,57.278468999999994
756,Arzgir,Russia,Stavropol'skiy,580716,45.370145,44.227942
757,Arzamas,Russia,Nizjnij Novgorod,580724,55.386666000000005,43.815687
758,Arsk,Russia,Tatarstan,580850,56.091311,49.876989
759,Armavir,Russia,Krasnodarskiy,580922,44.997655,41.129644
762,Ardon,Russia,North Ossetia,581179,43.175598,44.295621000000004
763,Apsheronsk,Russia,Krasnodarskiy,581313,44.468327,39.736707
764,Aprelevka,Russia,MO,581321,55.545166,37.07322
765,Apatity,Russia,Murmansk,581357,67.56804100000001,33.407115000000005
767,Andreyevskoye,Russia,MO,581928,55.943164,36.880154
768,Anapa,Russia,Krasnodarskiy,582182,44.894965,37.31617
770,Al’met’yevsk,Russia,Tatarstan,582432,54.901382999999996,52.297113
771,Aleksin,Russia,Tula,582750,54.50242900000001,37.066034
774,Aleksandrovskoye,Russia,Stavropol'skiy,582993,44.403288,43.884147999999996
775,Aleksandrovsk,Russia,Perm,583041,59.162925,57.58466899999999
776,Aleksandrov,Russia,Vladimir,583350,56.397774,38.727621
777,Alatyr’,Russia,Chuvashia,583437,54.839816000000006,46.572195
778,Levoberezhnyy,Russia,MO,583589,46.957033,39.631425
779,Aksay,Russia,Rostov,583673,51.165499,53.021901
780,Akhtyrskiy,Russia,Krasnodarskiy,583785,44.850353000000005,38.299825
781,Akhtubinsk,Russia,Astrakhan,583798,48.284884000000005,46.164413
782,Agryz,Russia,Tatarstan,583983,56.526318,52.995266
783,Afipskiy,Russia,Krasnodarskiy,584126,44.903348,38.841122999999996
784,Adler,Russia,Krasnodarskiy,584243,43.443579,39.910369
785,Achkhoy-Martan,Russia,Chechnya,584298,43.190914,45.285663
786,Abinsk,Russia,Krasnodarskiy,584441,44.866256,38.151163000000004
787,Abdulino,Russia,Orenburg,584471,53.677839,53.647263
788,Vasil’yevo,Russia,Tatarstan,611182,49.193252,119.729249
790,Neftekumsk,Russia,Stavropol'skiy,797781,44.750586,44.994088
791,Alagir,Russia,North Ossetia,802078,43.041711,44.219875
792,Persianovka,Russia,Rostov,802714,47.52678,39.417158
793,Annino,Russia,MO,819552,52.646423,33.859443
795,Pavlovo,Russia,Nizjnij Novgorod,827329,55.964629,43.06457
796,Belidzhi,Russia,Dagestan,828055,41.89089,48.413382
797,Lesnoy,Russia,Sverdlovsk,829005,58.635513,59.79863
800,Znamensk,Russia,Astrakhan,831130,48.586634000000004,45.736744
802,Kochubeyevskoye,Russia,Stavropol'skiy,841006,44.690728,41.824221
803,Vnukovo,Russia,MO,857689,55.608475,37.2924
804,Moskovskiy,Russia,Moscow,857690,55.74975,37.542581
805,Usinsk,Russia,Komi Republic,863061,65.99414399999999,57.55701
807,Staryy Malgobek,Russia,Ingushetiya,874045,43.509645,44.590188
808,Zavodoukovsk,Russia,Tjumen,1485357,56.508807999999995,66.539174
809,Zarinsk,Russia,Altai Krai,1485439,53.706331999999996,84.931488
812,Yuzhnoural’sk,Russia,Chelyabinsk,1485634,49.193252,119.729249
813,Yurga,Russia,Kemerovo,1485724,55.713556999999994,84.933869
814,Yeniseysk,Russia,Krasnoyarskiy,1485997,58.45306899999999,92.173769
815,Yemanzhelinsk,Russia,Chelyabinsk,1486039,54.752146999999994,61.317223
816,Yekaterinburg,Russia,Sverdlovsk,1486209,56.838011,60.597465
817,Yashkino,Russia,Kemerovo,1486298,55.871970999999995,85.43759
818,Yarovoye,Russia,Altai Krai,1486340,52.923446,78.569601
819,Yalutorovsk,Russia,Tjumen,1486468,56.654689000000005,66.312206
820,Vorkuta,Russia,Komi Republic,1486910,67.49741,64.061091
821,Vorgashor,Russia,Komi Republic,1486913,67.582684,63.797022
822,Verkhnyaya Salda,Russia,Sverdlovsk,1487277,58.04664399999999,60.555999
823,Verkhnyaya Pyshma,Russia,Sverdlovsk,1487281,56.966958,60.579193999999994
824,Verkhniy Ufaley,Russia,Chelyabinsk,1487394,56.04872099999999,60.23195
825,Uzhur,Russia,Krasnoyarskiy,1487882,55.32015500000001,89.84400600000001
826,Zelenogorsk,Russia,Krasnoyarskiy,1488253,56.113246,94.58900600000001
827,Uray,Russia,Khanty-Mansiyskiy Avtonomnyy Okrug,1488429,60.129631999999994,64.803944
828,Tyumen,Russia,Tjumen,1488754,57.15303299999999,65.534328
829,Turinsk,Russia,Sverdlovsk,1488933,58.039442,63.69814399999999
830,Troitsk,Russia,Chelyabinsk,1489246,55.48484200000001,37.305561
831,Topki,Russia,Kemerovo,1489394,55.27650799999999,85.615223
832,Tomsk,Russia,Tomsk,1489425,56.48464,84.947649
833,Toguchin,Russia,Novosibirsk,1489508,55.238013,84.402865
835,Tayshet,Russia,Irkutsk,1489870,55.940502,98.00298199999999
836,Tayga,Russia,Kemerovo,1489907,56.065138,85.631024
837,Tavda,Russia,Sverdlovsk,1489962,58.04187099999999,65.272595
838,Tatarsk,Russia,Novosibirsk,1490003,55.214532,75.97409
839,Tashtagol,Russia,Kemerovo,1490042,52.763912,87.848309
840,Tarko-Sale,Russia,Yamalo-Nenetskiy Avtonomnyy Okrug,1490085,64.911819,77.761055
841,Tara,Russia,Omsk,1490140,56.901838,74.371981
843,Tal’menka,Russia,Altai Krai,1490266,49.193252,119.729249
844,Talitsa,Russia,Sverdlovsk,1490277,57.01229300000001,63.732155000000006
845,Talitsa,Russia,Sverdlovsk,1490281,57.01229300000001,63.732155000000006
846,Sysert’,Russia,Sverdlovsk,1490402,56.502281,60.810025
847,Suzun,Russia,Novosibirsk,1490551,53.789134999999995,82.316124
848,Surgut,Russia,Khanty-Mansiyskiy Avtonomnyy Okrug,1490624,61.254034999999995,73.396221
849,Sukhoy Log,Russia,Sverdlovsk,1490686,56.90543100000001,62.03554200000001
850,Strezhevoy,Russia,Tomsk,1490796,60.732862,77.60400200000001
851,Sredneuralsk,Russia,Sverdlovsk,1491159,56.991837,60.477136
852,Sovetskiy,Russia,Khanty-Mansiyskiy Avtonomnyy Okrug,1491230,56.296443999999994,44.034884999999996
853,Sosnovoborsk,Russia,Krasnoyarskiy,1491291,56.120211,93.33543399999999
854,Slavgorod,Russia,Altai Krai,1491706,52.999375,78.64594
855,Shushenskoye,Russia,Krasnoyarskiy,1491953,53.329036,91.95057299999999
856,Shumikha,Russia,Kurgan,1491999,55.228726,63.285709999999995
857,Sharypovo,Russia,Krasnoyarskiy,1492401,55.53909,89.18016
858,Shadrinsk,Russia,Kurgan,1492517,56.087042000000004,63.629746999999995
859,Serov,Russia,Sverdlovsk,1492663,59.605391000000004,60.573588
860,Sayanogorsk,Russia,Khakasiya,1492893,53.100761999999996,91.412195
861,Salekhard,Russia,Yamalo-Nenetskiy Avtonomnyy Okrug,1493197,66.529844,66.614399
862,Rubtsovsk,Russia,Altai Krai,1493467,51.501207,81.2078
863,Rezh,Russia,Sverdlovsk,1493648,57.373771999999995,61.391639
864,Reftinskiy,Russia,Sverdlovsk,1493687,57.091297,61.67442
865,Promyshlennaya,Russia,Kemerovo,1494091,54.916511,85.637654
867,Poykovskiy,Russia,Khanty-Mansiyskiy Avtonomnyy Okrug,1494276,60.996562,71.902458
868,Polysayevo,Russia,Kemerovo,1494456,54.60544300000001,86.280901
869,Polevskoy,Russia,Sverdlovsk,1494573,56.446498999999996,60.177071999999995
870,Plast,Russia,Chelyabinsk,1494907,54.36328100000001,60.808399
871,Osinniki,Russia,Kemerovo,1495974,53.598748,87.337069
872,Omsk,Russia,Omsk,1496153,54.98934200000001,73.368212
873,Ob’,Russia,Novosibirsk,1496421,54.99459399999999,82.693758
874,Nyagan,Russia,Khanty-Mansiyskiy Avtonomnyy Okrug,1496476,62.145759,65.433654
875,Noyabrsk,Russia,Yamalo-Nenetskiy Avtonomnyy Okrug,1496503,63.201801,75.450938
876,Novyy Urengoy,Russia,Yamalo-Nenetskiy Avtonomnyy Okrug,1496511,66.083963,76.68097399999999
878,Novosibirsk,Russia,Novosibirsk,1496747,55.030198999999996,82.92043000000001
879,Novokuznetsk,Russia,Kemerovo,1496990,53.757546999999995,87.136044
880,Novoaltaysk,Russia,Altai Krai,1497173,53.412020999999996,83.93106999999999
881,Norilsk,Russia,Krasnoyarskiy,1497337,69.343985,88.21038399999999
882,Nizhnyaya Salda,Russia,Sverdlovsk,1497393,58.07485500000001,60.702577000000005
883,Nizhnevartovsk,Russia,Khanty-Mansiyskiy Avtonomnyy Okrug,1497543,60.939716000000004,76.56962800000001
884,Nizhneudinsk,Russia,Irkutsk,1497549,54.901233,99.026387
886,Nefteyugansk,Russia,Khanty-Mansiyskiy Avtonomnyy Okrug,1497917,61.088212,72.616331
887,Nazarovo,Russia,Krasnoyarskiy,1497951,56.012344999999996,90.417688
888,Nadym,Russia,Yamalo-Nenetskiy Avtonomnyy Okrug,1498087,65.535924,72.531341
889,Myski,Russia,Kemerovo,1498129,53.712509,87.805747
890,Minusinsk,Russia,Krasnoyarskiy,1498693,53.710564,91.687268
891,Miass,Russia,Chelyabinsk,1498894,55.046414,60.108081000000006
892,Mezhdurechensk,Russia,Kemerovo,1498920,53.686595999999994,88.07037199999999
893,Megion,Russia,Khanty-Mansiyskiy Avtonomnyy Okrug,1499053,61.03289,76.102612
894,Mayma,Russia,Altai Republic,1499163,52.003718,85.89618
895,Mariinsk,Russia,Kemerovo,1499350,56.206952,87.742263
896,Linëvo,Russia,Novosibirsk,1500532,58.00693100000001,33.68588
897,Lesosibirsk,Russia,Krasnoyarskiy,1500607,58.221728000000006,92.50365699999999
898,Leninsk-Kuznetsky,Russia,Kemerovo,1500665,54.663608999999994,86.162243
899,Labytnangi,Russia,Yamalo-Nenetskiy Avtonomnyy Okrug,1500933,66.660595,66.383963
900,Kyzyl,Russia,Tyva,1500973,51.719086,94.43775699999999
901,Kyshtym,Russia,Chelyabinsk,1500997,55.707877,60.538949
902,Kuybyshev,Russia,Novosibirsk,1501141,53.195538,50.101783000000005
903,Kurtamysh,Russia,Kurgan,1501255,54.910151,64.42799000000001
904,Kurgan,Russia,Kurgan,1501321,55.44100400000001,65.34111800000001
905,Kupino,Russia,Novosibirsk,1501365,54.366046,77.29725400000001
906,Kulunda,Russia,Altai Krai,1501460,52.566112,78.936976
907,Krasnoyarsk,Russia,Krasnoyarskiy,1502026,56.010563,92.852572
908,Krasnoural’sk,Russia,Sverdlovsk,1502060,58.35369,60.055960999999996
909,Krasnotur’insk,Russia,Sverdlovsk,1502061,59.763760999999995,60.193493000000004
910,Krasnoobsk,Russia,Novosibirsk,1502091,54.92125600000001,82.991208
911,Korkino,Russia,Chelyabinsk,1502536,54.892493,61.393049
912,Kopeysk,Russia,Chelyabinsk,1502603,55.11673199999999,61.61796999999999
913,Yugorsk,Russia,Khanty-Mansiyskiy Avtonomnyy Okrug,1502725,61.314917,63.331964
914,Kolpashevo,Russia,Tomsk,1502862,58.311384,82.902679
915,Kodinsk,Russia,Krasnoyarskiy,1503037,58.603407999999995,99.179703
917,Kiselëvsk,Russia,Kemerovo,1503277,54.006025,86.636679
918,Kirovgrad,Russia,Sverdlovsk,1503335,57.432415,60.062895999999995
919,Khanty-Mansiysk,Russia,Khanty-Mansiyskiy Avtonomnyy Okrug,1503772,61.00318000000001,69.018902
920,Kemerovo,Russia,Kemerovo,1503901,55.354727000000004,86.088374
921,Kedrovka,Russia,Kemerovo,1503940,58.17675799999999,59.369217000000006
923,Kataysk,Russia,Kurgan,1504212,56.283235,62.58365
924,Kasli,Russia,Chelyabinsk,1504251,55.893652,60.765918000000006
925,Kartaly,Russia,Chelyabinsk,1504317,53.053681000000005,60.647753
926,Karpinsk,Russia,Sverdlovsk,1504343,59.766534,60.001227
927,Karasuk,Russia,Novosibirsk,1504489,53.73429399999999,78.042389
928,Karabash,Russia,Chelyabinsk,1504636,55.490789,60.203042
929,Kansk,Russia,Krasnoyarskiy,1504682,56.205045,95.705055
930,Kamyshlov,Russia,Sverdlovsk,1504769,56.846578,62.712288
931,Kamensk-Ural’skiy,Russia,Sverdlovsk,1504826,56.414927,61.918707999999995
932,Kamen’-na-Obi,Russia,Altai Krai,1504871,53.791486,81.354558
933,Kaltan,Russia,Kemerovo,1504972,53.521083,87.27716
934,Kalachinsk,Russia,Omsk,1505074,55.052608,74.58178199999999
935,Ivdel’,Russia,Sverdlovsk,1505260,60.697348999999996,60.41729
936,Iskitim,Russia,Novosibirsk,1505429,54.642582,83.306382
937,Ishim,Russia,Tjumen,1505453,56.11055,69.479639
938,Irbit,Russia,Sverdlovsk,1505526,57.68381899999999,63.057664
939,Ilanskiy,Russia,Krasnoyarskiy,1505933,56.238552,96.065297
941,Gornyak,Russia,Altai Krai,1506260,50.997775,81.464198
942,Gorno-Altaysk,Russia,Altai Republic,1506271,51.958182,85.960373
943,Dudinka,Russia,Krasnoyarskiy,1507116,69.403081,86.190854
944,Divnogorsk,Russia,Krasnoyarskiy,1507379,55.957721,92.38014799999999
945,Degtyarsk,Russia,Sverdlovsk,1507488,56.698463000000004,60.086674
946,Chunskiy,Russia,Irkutsk,1507636,56.085967000000004,99.665539
947,Chernogorsk,Russia,Khakasiya,1508054,53.827013,91.306005
948,Cherepanovo,Russia,Novosibirsk,1508161,54.22841700000001,83.372201
949,Chelyabinsk,Russia,Chelyabinsk,1508291,55.159896999999994,61.402554
950,Chebarkul’,Russia,Chelyabinsk,1508350,54.977785,60.37011999999999
952,Borodino,Russia,Krasnoyarskiy,1508943,55.905442,94.90217700000001
953,Bolotnoye,Russia,Novosibirsk,1509819,55.672001,84.385447
954,Bogotol,Russia,Krasnoyarskiy,1509852,56.210117000000004,89.531258
955,Bogdanovich,Russia,Sverdlovsk,1509888,56.776502,62.04629499999999
956,Biysk,Russia,Altai Krai,1510018,52.539297,85.21382
957,Beryozovsky,Russia,Sverdlovsk,1510203,55.669361,86.274514
958,Berëzovskiy,Russia,Kemerovo,1510205,46.275591999999996,40.443726
960,Berdsk,Russia,Novosibirsk,1510350,54.758288,83.107135
961,Beloyarskiy,Russia,Khanty-Mansiyskiy Avtonomnyy Okrug,1510450,63.716043000000006,66.667588
962,Belovo,Russia,Kemerovo,1510469,54.422114,86.303692
963,Barnaul,Russia,Altai Krai,1510853,53.346785,83.77685600000001
964,Barabinsk,Russia,Novosibirsk,1510916,55.350412,78.341923
966,Asbest,Russia,Sverdlovsk,1511330,57.005274,61.458114
968,Aramil,Russia,Sverdlovsk,1511466,56.694538,60.834315000000004
969,Anzhero-Sudzhensk,Russia,Kemerovo,1511494,56.083175,86.01821600000001
970,Aleysk,Russia,Altai Krai,1511783,52.492167,82.779448
971,Alapayevsk,Russia,Sverdlovsk,1511954,57.853038,61.702672
972,Akademgorodok,Russia,Novosibirsk,1512086,49.193252,119.729249
973,Achinsk,Russia,Krasnoyarskiy,1512165,56.269496,90.495231
975,Abakan,Russia,Khakasiya,1512236,53.721152000000004,91.442387
976,Snezhinsk,Russia,Chelyabinsk,1536289,56.085209,60.732535999999996
977,Ozersk,Russia,Chelyabinsk,1538634,55.763183999999995,60.707599
978,Zheleznogorsk,Russia,Krasnoyarskiy,1538635,52.337971,35.351743
979,Novoural’sk,Russia,Sverdlovsk,1538636,57.247234999999996,60.095604
980,Seversk,Russia,Tomsk,1538637,56.603184999999996,84.880913
981,Gubkinskiy,Russia,Yamalo-Nenetskiy Avtonomnyy Okrug,1539209,64.432625,76.50049399999999
982,Raduzhny,Russia,Khanty-Mansiyskiy Avtonomnyy Okrug,1540356,62.134265,77.458439
983,Muravlenko,Russia,Yamalo-Nenetskiy Avtonomnyy Okrug,1540711,63.795285,74.49444799999999
984,Lyantor,Russia,Khanty-Mansiyskiy Avtonomnyy Okrug,1541359,61.620663,72.15535200000001
985,Zima,Russia,Irkutsk,2012484,53.920719999999996,102.049065
986,Zheleznogorsk-Ilimskiy,Russia,Irkutsk,2012557,56.584843000000006,104.114283
987,Zeya,Russia,Amur,2012593,53.734033,127.26588899999999
988,Yakutsk,Russia,Sakha,2013159,62.028082,129.732609
989,Vyazemskiy,Russia,Khabarovsk Krai,2013229,47.535352,134.75529699999998
991,Vladivostok,Russia,Primorskiy,2013348,43.115536,131.88548500000002
992,Vikhorevka,Russia,Irkutsk,2013399,56.120718000000004,101.170396
993,Ust’-Kut,Russia,Irkutsk,2013923,56.792838,105.775699
994,Ust’-Ilimsk,Russia,Irkutsk,2013952,57.943039,102.741523
995,Ussuriysk,Russia,Primorskiy,2014006,43.797273,131.95178
996,Usol’ye-Sibirskoye,Russia,Irkutsk,2014022,52.756648,103.638769
997,Ulan-Ude,Russia,Respublika Buryatiya,2014407,51.834464000000004,107.584574
998,Udachny,Russia,Sakha,2014624,66.406966,112.306389
999,Tynda,Russia,Amur,2014718,55.154656,124.72923600000001
1000,Tulun,Russia,Irkutsk,2014927,54.55712,100.578038
1002,Fokino,Russia,Primorskiy,2015310,53.455436,34.415923
1004,Spassk-Dal’niy,Russia,Primorskiy,2016187,49.193252,119.729249
1005,Slyudyanka,Russia,Irkutsk,2016422,51.656501,103.718845
1006,Shimanovsk,Russia,Amur,2016701,51.999509,127.676123
1007,Shelekhov,Russia,Irkutsk,2016764,52.210209000000006,104.09739499999999
1008,Severobaykal’sk,Russia,Respublika Buryatiya,2016910,49.193252,119.729249
1009,Raychikhinsk,Russia,Amur,2017487,49.794114,129.411255
1010,Petrovsk-Zabaykal’skiy,Russia,Transbaikal Territory,2017945,49.193252,119.729249
1011,Partizansk,Russia,Primorskiy,2018116,43.119813,133.123246
1012,Neryungri,Russia,Sakha,2019309,56.659948,124.72031499999999
1013,Nerchinsk,Russia,Transbaikal Territory,2019326,51.95948,116.585415
1014,Nakhodka,Russia,Primorskiy,2019528,42.824037,132.89281100000002
1015,Mirny,Russia,Sakha,2019951,62.541028000000004,113.978692
1016,Luchegorsk,Russia,Primorskiy,2020689,46.445063,134.296599
1017,Lesozavodsk,Russia,Primorskiy,2020812,45.477955,133.41859399999998
1018,Lensk,Russia,Sakha,2020838,60.713731,114.91184399999999
1019,Kyakhta,Russia,Respublika Buryatiya,2021066,50.355214000000004,106.449903
1020,Krasnokamensk,Russia,Transbaikal Territory,2021618,50.093720000000005,118.03325600000001
1021,Komsomolsk-on-Amur,Russia,Khabarovsk Krai,2021851,50.549923,137.007948
1022,Khabarovsk,Russia,Khabarovsk Krai,2022890,48.480222999999995,135.07191699999998
1023,Kavalerovo,Russia,Primorskiy,2023058,44.267653,135.057283
1024,Irkutsk,Russia,Irkutsk,2023469,52.287054,104.281047
1025,Gusinoozyorsk,Russia,Respublika Buryatiya,2023782,51.285526000000004,106.529323
1026,Dal’nerechensk,Russia,Primorskiy,2025159,49.193252,119.729249
1027,Chita,Russia,Transbaikal Territory,2025339,52.033972999999996,113.49943200000001
1028,Cheremkhovo,Russia,Irkutsk,2025527,53.136911,103.090096
1029,Borzya,Russia,Transbaikal Territory,2026126,50.387629,116.52348500000001
1031,Bodaybo,Russia,Irkutsk,2026583,57.852118000000004,114.198968
1032,Blagoveshchensk,Russia,Amur,2026609,50.29064,127.527173
1033,Birobidzhan,Russia,Jewish Autonomous Oblast,2026643,48.792947,132.920245
1034,Bikin,Russia,Khabarovsk Krai,2026696,46.818591999999995,134.255034
1035,Belogorsk,Russia,Amur,2026895,50.921287,128.473917
1037,Aykhal,Russia,Sakha,2027296,65.942105,111.50218999999998
1038,Artëm,Russia,Primorskiy,2027456,43.354804,132.18563
1039,Arsen’yev,Russia,Primorskiy,2027468,49.193252,119.729249
1040,Angarsk,Russia,Irkutsk,2027667,52.544357999999995,103.88824
1041,Amursk,Russia,Khabarovsk Krai,2027749,50.226797,136.910607
1042,Aldan,Russia,Sakha,2027968,58.609451,125.38167299999999
1043,Dal'negorsk,Russia,Primorskiy,2051471,49.193252,119.729249
1044,Bratsk,Russia,Irkutsk,2051523,56.151362,101.63408000000001
1045,Sayansk,Russia,Irkutsk,2055166,54.11081,102.180139
1046,Khabarovsk Vtoroy,Russia,Khabarovsk Krai,2056752,47.878346,135.485438
1047,Markova,Russia,Irkutsk,2056881,46.740749,39.171442
1048,Vilyuchinsk,Russia,Kamtsjatka,2118647,52.906856999999995,158.418296
1049,Yuzhno-Sakhalinsk,Russia,Sakhalin,2119441,46.959154999999996,142.738023
1050,Yelizovo,Russia,Kamtsjatka,2119538,53.183053,158.38835500000002
1052,Sovetskaya Gavan’,Russia,Khabarovsk Krai,2121052,48.966440000000006,140.28512800000001
1053,Poronaysk,Russia,Sakhalin,2121909,49.22038,143.08956
1054,Petropavlovsk-Kamchatsky,Russia,Kamtsjatka,2122104,53.024075,158.643566
1055,Okha,Russia,Sakhalin,2122614,53.58896899999999,142.949163
1057,Nevel’sk,Russia,Sakhalin,2122894,46.652828,141.863126
1058,Magadan,Russia,Magadan,2123628,59.568164,150.808541
1059,Korsakov,Russia,Sakhalin,2124286,46.63498,142.78257
1060,Kholmsk,Russia,Sakhalin,2124615,47.040905,142.041622
1062,Isakogorka,Russia,Arkhangelskaya,6315399,64.447201,40.619832
1063,Krasnoznamensk,Russia,MO,6417459,55.600506,37.042489
1066,Orekhovo-Borisovo,Russia,Moscow,6418220,49.193252,119.729249
1068,Kogalym,Russia,Khanty-Mansiyskiy Avtonomnyy Okrug,6695754,62.26406899999999,74.482761
1069,Pyt-Yakh,Russia,Khanty-Mansiyskiy Avtonomnyy Okrug,6696686,60.758589,72.836526
1070,Langepas,Russia,Khanty-Mansiyskiy Avtonomnyy Okrug,6696767,61.253701,75.180725
1071,Lesnoy,Russia,Sverdlovsk,6853140,58.635513,59.79863
1074,Nizhnesortymskiy,Russia,Khanty-Mansiyskiy Avtonomnyy Okrug,7287775,62.442806999999995,71.765204
1075,Pokachi,Russia,Khanty-Mansiyskiy Avtonomnyy Okrug,7289676,61.742253000000005,75.59411999999999
1076,Izluchinsk,Russia,Khanty-Mansiyskiy Avtonomnyy Okrug,7290697,60.953021,76.891171
1078,Chernaya Rechka,Russia,Leningrad,8504946,57.408108999999996,83.793287
1081,Vasyl'evsky Ostrov,Russia,St.-Petersburg,8504949,59.957687,30.938553000000002
1083,Kalininskiy,Russia,Leningrad,8504951,49.564477000000004,41.845601
1092,Vostochnoe Degunino,Russia,MO,8505053,55.865823,37.573088
